NORAD_CAT_ID,OBJECT_NAME,OBJECT_TYPE,EPOCH,MEAN_MOTION,ECCENTRICITY,INCLINATION,RA_OF_ASC_NODE,ARG_OF_PERICENTER,MEAN_ANOMALY,BSTAR,MEAN_MOTION_DOT,MEAN_MOTION_DDOT,TLE_LINE0,TLE_LINE1,TLE_LINE2,SEMIMAJOR_AXIS,PERIOD,APOGEE,PERIGEE,DECAYED
53576.0,STARLINK-4581,PAYLOAD,2023-03-29 23:43:14,15.08831934,0.0002398,53.2142,202.9307,43.9086,316.2096,0.00081906,0.00012769,0.0,0 STARLINK-4581,1 53576U 22101BB  23088.98836424  .00012769  00000-0  81906-3 0  9999,2 53576  53.2142 202.9307 0002398  43.9086 316.2096 15.08831934 34051,6917.905,95.438,541.429,538.111,0.0
53576.0,STARLINK-4581,PAYLOAD,2023-03-30 10:50:56,15.08858125,0.0001436,53.2141,200.8474,56.8783,303.2346,0.0022293,0.00035387,0.0,0 STARLINK-4581,1 53576U 22101BB  23089.45203818  .00035387  00000-0  22293-2 0  9991,2 53576  53.2141 200.8474 0001436  56.8783 303.2346 15.08858125 34124,6917.825,95.436,540.683,538.697,0.0
53576.0,STARLINK-4581,PAYLOAD,2023-03-30 18:47:51,15.08894647,0.0001541,53.2147,199.359,61.5457,298.569,0.0036514,0.00058393,0.0,0 STARLINK-4581,1 53576U 22101BB  23089.78323095  .00058393  00000-0  36514-2 0  9990,2 53576  53.2147 199.3590 0001541  61.5457 298.5690 15.08894647 34171,6917.713,95.434,540.644,538.512,0.0
53576.0,STARLINK-4581,PAYLOAD,2023-03-30 21:58:37,15.08867008,0.0001958,53.2145,198.7664,49.0273,311.0888,0.0024336,0.00038685,0.0,0 STARLINK-4581,1 53576U 22101BB  23089.91571295  .00038685  00000-0  24336-2 0  9993,2 53576  53.2145 198.7664 0001958  49.0273 311.0888 15.08867008 35018,6917.798,95.436,541.017,538.308,0.0
53576.0,STARLINK-4581,PAYLOAD,2023-03-31 13:52:28,15.08861283,0.0001378,53.2153,195.7882,81.7539,278.3609,0.0031735,0.00050611,0.0,0 STARLINK-4581,1 53576U 22101BB  23090.57811246  .00050611  00000-0  31735-2 0  9994,2 53576  53.2153 195.7882 0001378  81.7539 278.3609 15.08861283 34294,6917.815,95.436,540.634,538.727,0.0
53576.0,STARLINK-4581,PAYLOAD,2023-03-31 20:14:01,15.08856686,0.0001328,53.2151,194.5986,85.6968,274.4176,0.0013668,0.00021541,0.0,0 STARLINK-4581,1 53576U 22101BB  23090.84307042  .00021541  00000-0  13668-2 0  9993,2 53576  53.2151 194.5986 0001328  85.6968 274.4176 15.08856686 34330,6917.829,95.436,540.613,538.776,0.0
53576.0,STARLINK-4581,PAYLOAD,2023-03-31 23:24:48,15.08822206,0.000121,53.2154,194.0047,76.8288,283.2839,-0.00012379,-2.256e-05,0.0,0 STARLINK-4581,1 53576U 22101BB  23090.97555657 -.00002256  00000-0 -12379-3 0  9997,2 53576  53.2154 194.0047 0001210  76.8288 283.2839 15.08822206 34350,6917.935,95.439,540.637,538.963,0.0
53576.0,STARLINK-4581,PAYLOAD,2023-04-01 12:07:53,15.08828387,0.0001234,53.2149,191.6278,105.3263,254.7866,0.0017647,0.000279,0.0,0 STARLINK-4581,1 53576U 22101BB  23091.50548389  .00027900  00000-0  17647-2 0  9994,2 53576  53.2149 191.6278 0001234 105.3263 254.7866 15.08828387 35259,6917.916,95.438,540.635,538.927,0.0
53576.0,STARLINK-4581,PAYLOAD,2023-04-02 13:34:03,15.0887248,0.0001185,53.2143,186.8709,96.7664,263.3463,0.0016593,0.00026242,0.0,0 STARLINK-4581,1 53576U 22101BB  23092.56531960  .00026242  00000-0  16593-2 0  9995,2 53576  53.2143 186.8709 0001185  96.7664 263.3463 15.08872480 34599,6917.781,95.436,540.466,538.826,0.0
53576.0,STARLINK-4581,PAYLOAD,2023-04-02 15:09:26,15.08877229,0.0001194,53.2143,186.5736,94.6893,265.4235,0.0017609,0.00027877,0.0,0 STARLINK-4581,1 53576U 22101BB  23092.63155798  .00027877  00000-0  17609-2 0  9998,2 53576  53.2143 186.5736 0001194  94.6893 265.4235 15.08877229 35426,6917.767,95.435,540.458,538.806,0.0
53576.0,STARLINK-4581,PAYLOAD,2023-04-02 23:06:22,15.0885273,0.0002109,53.214,185.0867,74.9328,285.1898,0.00067378,0.00010455,0.0,0 STARLINK-4581,1 53576U 22101BB  23092.96276174  .00010455  00000-0  67378-3 0  9999,2 53576  53.2140 185.0867 0002109  74.9328 285.1898 15.08852730 34651,6917.841,95.437,541.165,538.248,0.0
53576.0,STARLINK-4581,PAYLOAD,2023-04-03 11:49:27,15.08827787,0.0001047,53.2133,182.7092,77.7174,282.3936,0.00082712,0.00012896,0.0,0 STARLINK-4581,1 53576U 22101BB  23093.49268455  .00012896  00000-0  82712-3 0  9991,2 53576  53.2133 182.7092 0001047  77.7174 282.3936 15.08827787 34732,6917.918,95.438,540.507,539.058,0.0
53576.0,STARLINK-4581,PAYLOAD,2023-04-03 15:00:14,15.08831329,0.0001121,53.2136,182.1143,71.5389,288.5725,0.0013734,0.00021632,0.0,0 STARLINK-4581,1 53576U 22101BB  23093.62516537  .00021632  00000-0  13734-2 0  9998,2 53576  53.2136 182.1143 0001121  71.5389 288.5725 15.08831329 35573,6917.907,95.438,540.547,538.996,0.0
53576.0,STARLINK-4581,PAYLOAD,2023-04-04 11:40:14,15.08857986,0.0001371,53.215,178.2454,66.3933,293.7203,0.0011696,0.00018384,0.0,0 STARLINK-4581,1 53576U 22101BB  23094.48628399  .00018384  00000-0  11696-2 0  9998,2 53576  53.2150 178.2454 0001371  66.3933 293.7203 15.08857986 35705,6917.825,95.436,540.639,538.742,0.0
53576.0,STARLINK-4581,PAYLOAD,2023-04-04 18:01:47,15.08871222,0.0001436,53.2152,177.0554,66.0352,294.0791,0.0012121,0.00019072,0.0,0 STARLINK-4581,1 53576U 22101BB  23094.75123876  .00019072  00000-0  12121-2 0  9997,2 53576  53.2152 177.0554 0001436  66.0352 294.0791 15.08871222 35748,6917.785,95.436,540.643,538.657,0.0
53576.0,STARLINK-4581,PAYLOAD,2023-04-05 11:31:02,15.08839852,0.0001418,53.215,173.7845,67.2417,292.8725,0.00022413,3.281e-05,0.0,0 STARLINK-4581,1 53576U 22101BB  23095.47988506  .00003281  00000-0  22413-3 0  9997,2 53576  53.2150 173.7845 0001418  67.2417 292.8725 15.08839852 35035,6917.881,95.438,540.727,538.765,0.0
53576.0,STARLINK-4581,PAYLOAD,2023-04-06 11:21:49,15.08846973,0.0001229,53.2142,169.3231,101.545,258.568,0.00060388,9.338e-05,0.0,0 STARLINK-4581,1 53576U 22101BB  23096.47348540  .00009338  00000-0  60388-3 0  9998,2 53576  53.2142 169.3231 0001229 101.5450 258.5680 15.08846973 36004,6917.859,95.437,540.574,538.874,0.0
53576.0,STARLINK-4581,PAYLOAD,2023-04-06 14:32:35,15.08848367,0.0001267,53.2146,168.7284,99.3472,260.7663,0.00055107,8.495e-05,0.0,0 STARLINK-4581,1 53576U 22101BB  23096.60596488  .00008495  00000-0  55107-3 0  9995,2 53576  53.2146 168.7284 0001267  99.3472 260.7663 15.08848367 35205,6917.855,95.437,540.596,538.843,0.0
53576.0,STARLINK-4581,PAYLOAD,2023-04-07 09:37:13,15.08843229,0.0001258,53.2143,165.1594,95.8447,264.2688,0.0001769,2.529e-05,0.0,0 STARLINK-4581,1 53576U 22101BB  23097.40084517  .00002529  00000-0  17690-3 0  9996,2 53576  53.2143 165.1594 0001258  95.8447 264.2688 15.08843229 35321,6917.871,95.437,540.606,538.865,0.0
53576.0,STARLINK-4581,PAYLOAD,2023-04-07 12:47:59,15.08844499,0.0001351,53.2151,164.565,93.8972,266.2175,0.00019276,2.782e-05,0.0,0 STARLINK-4581,1 53576U 22101BB  23097.53332490  .00002782  00000-0  19276-3 0  9999,2 53576  53.2151 164.5650 0001351  93.8972 266.2175 15.08844499 36167,6917.867,95.437,540.666,538.797,0.0
53576.0,STARLINK-4581,PAYLOAD,2023-04-08 11:03:22,15.08843583,0.0001309,53.2135,160.4019,113.0905,247.0225,4.7188e-05,4.63e-06,0.0,0 STARLINK-4581,1 53576U 22101BB  23098.46068239  .00000463  00000-0  47188-4 0  9997,2 53576  53.2135 160.4019 0001309 113.0905 247.0225 15.08843583 35487,6917.869,95.437,540.64,538.829,0.0
53576.0,STARLINK-4581,PAYLOAD,2023-04-09 04:32:37,15.088345,0.000105,53.2137,157.1316,111.5195,248.5909,-2.6468e-05,-7.09e-06,0.0,0 STARLINK-4581,1 53576U 22101BB  23099.18932627 -.00000709  00000-0 -26468-4 0  9991,2 53576  53.2137 157.1316 0001050 111.5195 248.5909 15.08834500 35595,6917.897,95.438,540.489,539.036,0.0
53576.0,STARLINK-4581,PAYLOAD,2023-04-09 12:29:33,15.08842576,0.000116,53.2136,155.6448,103.7573,256.3549,8.256e-05,1.026e-05,0.0,0 STARLINK-4581,1 53576U 22101BB  23099.52052241  .00001026  00000-0  82560-4 0  9990,2 53576  53.2136 155.6448 0001160 103.7573 256.3549 15.08842576 36464,6917.873,95.437,540.54,538.935,0.0
53576.0,STARLINK-4581,PAYLOAD,2023-04-09 20:26:28,15.08842842,0.0001115,53.2151,154.1589,87.9674,272.1446,5.5129e-05,5.9e-06,0.0,0 STARLINK-4581,1 53576U 22101BB  23099.85172301  .00000590  00000-0  55129-4 0  9992,2 53576  53.2151 154.1589 0001115  87.9674 272.1446 15.08842842 35698,6917.872,95.437,540.508,538.965,0.0
53576.0,STARLINK-4581,PAYLOAD,2023-04-10 04:23:25,15.08833138,0.0001255,53.2143,152.6729,112.3807,247.7318,5.3196e-06,-2.03e-06,0.0,0 STARLINK-4581,1 53576U 22101BB  23100.18292848 -.00000203  00000-0  53196-5 0  9995,2 53576  53.2143 152.6729 0001255 112.3807 247.7318 15.08833138 35744,6917.901,95.438,540.635,538.898,0.0
53576.0,STARLINK-4581,PAYLOAD,2023-04-10 07:34:11,15.08834896,0.0001165,53.2141,152.0783,104.6976,255.4146,1.767e-05,-7e-08,0.0,0 STARLINK-4581,1 53576U 22101BB  23100.31540831 -.00000007  00000-0  17670-4 0  9996,2 53576  53.2141 152.0783 0001165 104.6976 255.4146 15.08834896 36587,6917.896,95.438,540.567,538.955,0.0
53576.0,STARLINK-4581,PAYLOAD,2023-04-10 20:17:16,15.08843956,0.0001234,53.2148,149.6996,86.1204,273.993,5.2623e-05,5.5e-06,0.0,0 STARLINK-4581,1 53576U 22101BB  23100.84532447  .00000550  00000-0  52623-4 0  9997,2 53576  53.2148 149.6996 0001234  86.1204 273.9930 15.08843956 35848,6917.868,95.437,540.587,538.88,0.0
53576.0,STARLINK-4581,PAYLOAD,2023-04-11 12:11:07,15.08850794,0.0001225,53.2137,146.7258,83.8495,276.2636,0.00024977,3.691e-05,0.0,0 STARLINK-4581,1 53576U 22101BB  23101.50772052  .00003691  00000-0  24977-3 0  9998,2 53576  53.2137 146.7258 0001225  83.8495 276.2636 15.08850794 36760,6917.847,95.437,540.56,538.865,0.0
53576.0,STARLINK-4581,PAYLOAD,2023-04-11 20:08:02,15.08843945,0.0001173,53.2148,145.2388,90.1346,269.9781,9.304e-05,1.193e-05,0.0,0 STARLINK-4581,1 53576U 22101BB  23101.83892294  .00001193  00000-0  93040-4 0  9998,2 53576  53.2148 145.2388 0001173  90.1346 269.9781 15.08843945 36814,6917.868,95.437,540.545,538.922,0.0
53576.0,STARLINK-4581,PAYLOAD,2023-04-12 10:26:31,15.08834725,0.0001236,53.2157,142.5628,88.3541,271.7593,-7.873e-06,-4.13e-06,0.0,0 STARLINK-4581,1 53576U 22101BB  23102.43508937 -.00000413  00000-0 -78730-5 0  9999,2 53576  53.2157 142.5628 0001236  88.3541 271.7593 15.08834725 36084,6917.897,95.438,540.617,538.906,0.0
